FIREFLY-1               
1 62701U 25009CW  26193.49886641  .00000867  00000+0  89304-4 0  9997
2 62701  97.7062 271.1040 0002436 235.9960 124.1028 14.92737197 81099
FIREFLY-2               
1 62704U 25009CZ  26193.47676184  .00000512  00000+0  54946-4 0  9998
2 62704  97.7020 270.8537 0006640  12.1231 348.0147 14.92731584 81093
FIREFLY-3               
1 62710U 25009DF  26193.45499404  .00000465  00000+0  50373-4 0  9998
2 62710  97.7053 271.0909 0004819  79.5169 280.6593 14.92797021 81101
