{"fetched_at":"2026-07-12T17:32:40.595Z","source":"https://celestrak.org/NORAD/elements/gp.php?NAME=FIREFLY&FORMAT=JSON","constellation":"pixxel","records":[{"OBJECT_NAME":"FIREFLY-1","OBJECT_ID":"2025-009CW","EPOCH":"2026-07-12T11:58:22.057824","CLASSIFICATION_TYPE":"U","MEAN_MOTION":14.92737197,"ECCENTRICITY":0.0002436,"INCLINATION":97.7062,"RA_OF_ASC_NODE":271.104,"ARG_OF_PERICENTER":235.996,"MEAN_ANOMALY":124.1028,"EPHEMERIS_TYPE":0,"NORAD_CAT_ID":62701,"ELEMENT_SET_NO":999,"REV_AT_EPOCH":8109,"BSTAR":0.000089304,"MEAN_MOTION_DOT":0.00000867,"MEAN_MOTION_DDOT":0},{"OBJECT_NAME":"FIREFLY-2","OBJECT_ID":"2025-009CZ","EPOCH":"2026-07-12T11:26:32.222976","CLASSIFICATION_TYPE":"U","MEAN_MOTION":14.92731584,"ECCENTRICITY":0.000664,"INCLINATION":97.702,"RA_OF_ASC_NODE":270.8537,"ARG_OF_PERICENTER":12.1231,"MEAN_ANOMALY":348.0147,"EPHEMERIS_TYPE":0,"NORAD_CAT_ID":62704,"ELEMENT_SET_NO":999,"REV_AT_EPOCH":8109,"BSTAR":0.000054946,"MEAN_MOTION_DOT":0.00000512,"MEAN_MOTION_DDOT":0},{"OBJECT_NAME":"FIREFLY-3","OBJECT_ID":"2025-009DF","EPOCH":"2026-07-12T10:55:11.485056","CLASSIFICATION_TYPE":"U","MEAN_MOTION":14.92797021,"ECCENTRICITY":0.0004819,"INCLINATION":97.7053,"RA_OF_ASC_NODE":271.0909,"ARG_OF_PERICENTER":79.5169,"MEAN_ANOMALY":280.6593,"EPHEMERIS_TYPE":0,"NORAD_CAT_ID":62710,"ELEMENT_SET_NO":999,"REV_AT_EPOCH":8110,"BSTAR":0.000050373,"MEAN_MOTION_DOT":0.00000465,"MEAN_MOTION_DDOT":0}]}
